[{"OBJECT_NAME":"OBJECT C","OBJECT_ID":"2022-023C","EPOCH":"2026-03-09T22:57:27.819936","MEAN_MOTION":15.18202357,"ECCENTRICITY":0.00963055,"INCLINATION":63.4862,"RA_OF_ASC_NODE":247.9876,"ARG_OF_PERICENTER":349.5574,"MEAN_ANOMALY":10.3536,"EPHEMERIS_TYPE":0,"CLASSIFICATION_TYPE":"U","NORAD_CAT_ID":51948,"ELEMENT_SET_NO":999,"REV_AT_EPOCH":22265,"BSTAR":0.00022353772,"MEAN_MOTION_DOT":4.943e-5,"MEAN_MOTION_DDOT":0},{"OBJECT_NAME":"STARLINK-5680","OBJECT_ID":"2023-015G","EPOCH":"2026-03-09T23:34:41.359296","MEAN_MOTION":15.0253534,"ECCENTRICITY":0.00011534,"INCLINATION":43.0054,"RA_OF_ASC_NODE":324.7768,"ARG_OF_PERICENTER":264.6797,"MEAN_ANOMALY":95.3914,"EPHEMERIS_TYPE":0,"CLASSIFICATION_TYPE":"U","NORAD_CAT_ID":55455,"ELEMENT_SET_NO":999,"REV_AT_EPOCH":17079,"BSTAR":2.6221609e-5,"MEAN_MOTION_DOT":1.51e-6,"MEAN_MOTION_DDOT":0}]
